OOV-CUBE (TUBSAT-30)    
1 60240U 24128F   26095.31938792  .00003030  00000+0  23670-3 0  9999
2 60240  61.9933 119.5903 0052290 117.8444 242.7959 15.02424921 95169
COLIBRI-S (RS67S)       
1 61746U 24199M   26095.25493850  .00027728  00000+0  59181-3 0  9999
2 61746  97.3103 328.5642 0009283 174.1325 186.0034 15.44800317126143
HORS 3 (RS81S)          
1 61753U 24199U   26095.25669182  .00041272  00000+0  72567-3 0  9993
2 61753  97.3076 329.8704 0007337 173.6909 186.4437 15.50349237126241
HORS 4 (RS82S)          
1 61754U 24199V   26095.27271058  .00051175  00000+0  79855-3 0  9997
2 61754  97.3043 330.6962 0007006 169.1947 190.9458 15.53651040126308
HORIZON (RS59S)         
1 61757U 24199Y   26095.24875698  .00257939  00000+0  13515-2 0  9993
2 61757  97.2976 335.4000 0006552 146.2188 213.9499 15.80072576126604
ARCTICSAT 1 (RS74S)     
1 61762U 24199AD  26095.29483121  .00163821  00000+0  12073-2 0  9994
2 61762  97.3013 334.7430 0006755 144.6247 215.5466 15.72516178126564
SIT-2086                
1 61764U 24199AF  26095.28402084  .00028402  00000+0  52266-3 0  9998
2 61764  97.3064 330.5887 0007147 162.5159 197.6340 15.49126825123130
HYPERVIEW 1G (RS66S)    
1 61772U 24199AP  26095.25001809  .00096507  00000+0  10871-2 0  9990
2 61772  97.3018 332.0816 0008286 168.3225 191.8227 15.62196194123243
ALTAIR (RS65S)          
1 61779U 24199AW  26095.29354499  .00014660  00000+0  42379-3 0  9996
2 61779  97.3130 325.1563 0012503 200.7231 159.3508 15.35656152125925
ASRTU-1 (AO-123)        
1 61781U 24199AY  26095.28998897  .00010806  00000+0  32351-3 0  9991
2 61781  97.3103 324.6312 0013380 203.6809 156.3820 15.34616342122748
TUSUR GO (RS78S)        
1 61782U 24199AZ  26095.17850494  .00328662  00000+0  15508-2 0  9996
2 61782  97.2924 334.3660 0006869 157.0179 203.1399 15.82183505123396
SAMSAT-IONOSPHERE (RS7*)
1 61784U 24199BB  26095.25795232  .00049220  00000+0  81743-3 0  9990
2 61784  97.3059 329.7153 0010025 178.4496 181.6789 15.51893770126238
RTU MIREA 1 (RS51S)     
1 61785U 24199BC  26095.28459472  .00056832  00000+0  86857-3 0  9995
2 61785  97.3055 330.2712 0010070 176.1056 184.0278 15.54170756123120
TEVEL2-4                
1 63213U 25052D   26094.96024818  .00022675  00000+0  73221-3 0  9997
2 63213  97.3985 351.3418 0003566  46.7949 313.3590 15.32120609 58895
TEVEL2-5                
1 63214U 25052E   26095.16935114  .00023697  00000+0  76795-3 0  9995
2 63214  97.3978 351.5171 0003550  46.4233 313.7303 15.31996691 58923
TEVEL2-6                
1 63215U 25052F   26095.17987653  .00024715  00000+0  80172-3 0  9998
2 63215  97.3982 351.5133 0003596  45.6011 314.5525 15.31956649 58926
