[{"OBJECT_NAME":"OOV-CUBE (TUBSAT-30)","OBJECT_ID":"2024-128F","EPOCH":"2026-04-05T07:39:55.116288","MEAN_MOTION":15.02424921,"ECCENTRICITY":0.00522902,"INCLINATION":61.9933,"RA_OF_ASC_NODE":119.5903,"ARG_OF_PERICENTER":117.8444,"MEAN_ANOMALY":242.7959,"EPHEMERIS_TYPE":0,"CLASSIFICATION_TYPE":"U","NORAD_CAT_ID":60240,"ELEMENT_SET_NO":999,"REV_AT_EPOCH":9516,"BSTAR":0.00023670077,"MEAN_MOTION_DOT":3.03e-5,"MEAN_MOTION_DDOT":0},{"OBJECT_NAME":"COLIBRI-S (RS67S)","OBJECT_ID":"2024-199M","EPOCH":"2026-04-05T06:07:06.686400","MEAN_MOTION":15.44800317,"ECCENTRICITY":0.00092833,"INCLINATION":97.3103,"RA_OF_ASC_NODE":328.5642,"ARG_OF_PERICENTER":174.1325,"MEAN_ANOMALY":186.0034,"EPHEMERIS_TYPE":0,"CLASSIFICATION_TYPE":"U","NORAD_CAT_ID":61746,"ELEMENT_SET_NO":999,"REV_AT_EPOCH":12614,"BSTAR":0.00059181036,"MEAN_MOTION_DOT":0.00027728,"MEAN_MOTION_DDOT":0},{"OBJECT_NAME":"HORS 3 (RS81S)","OBJECT_ID":"2024-199U","EPOCH":"2026-04-05T06:09:38.173248","MEAN_MOTION":15.50349237,"ECCENTRICITY":0.00073377,"INCLINATION":97.3076,"RA_OF_ASC_NODE":329.8704,"ARG_OF_PERICENTER":173.6909,"MEAN_ANOMALY":186.4437,"EPHEMERIS_TYPE":0,"CLASSIFICATION_TYPE":"U","NORAD_CAT_ID":61753,"ELEMENT_SET_NO":999,"REV_AT_EPOCH":12624,"BSTAR":0.00072567459,"MEAN_MOTION_DOT":0.00041272,"MEAN_MOTION_DDOT":0},{"OBJECT_NAME":"HORS 4 (RS82S)","OBJECT_ID":"2024-199V","EPOCH":"2026-04-05T06:32:42.194112","MEAN_MOTION":15.5365104,"ECCENTRICITY":0.00070061,"INCLINATION":97.3043,"RA_OF_ASC_NODE":330.6962,"ARG_OF_PERICENTER":169.1947,"MEAN_ANOMALY":190.9458,"EPHEMERIS_TYPE":0,"CLASSIFICATION_TYPE":"U","NORAD_CAT_ID":61754,"ELEMENT_SET_NO":999,"REV_AT_EPOCH":12630,"BSTAR":0.00079854822,"MEAN_MOTION_DOT":0.00051175,"MEAN_MOTION_DDOT":0},{"OBJECT_NAME":"HORIZON (RS59S)","OBJECT_ID":"2024-199Y","EPOCH":"2026-04-05T05:58:12.603072","MEAN_MOTION":15.80072576,"ECCENTRICITY":0.00065524,"INCLINATION":97.2976,"RA_OF_ASC_NODE":335.4,"ARG_OF_PERICENTER":146.2188,"MEAN_ANOMALY":213.9499,"EPHEMERIS_TYPE":0,"CLASSIFICATION_TYPE":"U","NORAD_CAT_ID":61757,"ELEMENT_SET_NO":999,"REV_AT_EPOCH":12660,"BSTAR":0.0013515105,"MEAN_MOTION_DOT":0.00257939,"MEAN_MOTION_DDOT":0},{"OBJECT_NAME":"ARCTICSAT 1 (RS74S)","OBJECT_ID":"2024-199AD","EPOCH":"2026-04-05T07:04:33.416544","MEAN_MOTION":15.72516178,"ECCENTRICITY":0.00067555,"INCLINATION":97.3013,"RA_OF_ASC_NODE":334.743,"ARG_OF_PERICENTER":144.6247,"MEAN_ANOMALY":215.5466,"EPHEMERIS_TYPE":0,"CLASSIFICATION_TYPE":"U","NORAD_CAT_ID":61762,"ELEMENT_SET_NO":999,"REV_AT_EPOCH":12656,"BSTAR":0.0012073221,"MEAN_MOTION_DOT":0.00163821,"MEAN_MOTION_DDOT":0},{"OBJECT_NAME":"SIT-2086","OBJECT_ID":"2024-199AF","EPOCH":"2026-04-05T06:48:59.400576","MEAN_MOTION":15.49126825,"ECCENTRICITY":0.00071472,"INCLINATION":97.3064,"RA_OF_ASC_NODE":330.5887,"ARG_OF_PERICENTER":162.5159,"MEAN_ANOMALY":197.634,"EPHEMERIS_TYPE":0,"CLASSIFICATION_TYPE":"U","NORAD_CAT_ID":61764,"ELEMENT_SET_NO":999,"REV_AT_EPOCH":12313,"BSTAR":0.00052266091,"MEAN_MOTION_DOT":0.00028402,"MEAN_MOTION_DDOT":0},{"OBJECT_NAME":"HYPERVIEW 1G (RS66S)","OBJECT_ID":"2024-199AP","EPOCH":"2026-04-05T06:00:01.562976","MEAN_MOTION":15.62196194,"ECCENTRICITY":0.00082861,"INCLINATION":97.3018,"RA_OF_ASC_NODE":332.0816,"ARG_OF_PERICENTER":168.3225,"MEAN_ANOMALY":191.8227,"EPHEMERIS_TYPE":0,"CLASSIFICATION_TYPE":"U","NORAD_CAT_ID":61772,"ELEMENT_SET_NO":999,"REV_AT_EPOCH":12324,"BSTAR":0.0010870533,"MEAN_MOTION_DOT":0.00096507,"MEAN_MOTION_DDOT":0},{"OBJECT_NAME":"ALTAIR (RS65S)","OBJECT_ID":"2024-199AW","EPOCH":"2026-04-05T07:02:42.287136","MEAN_MOTION":15.35656152,"ECCENTRICITY":0.0012503,"INCLINATION":97.313,"RA_OF_ASC_NODE":325.1563,"ARG_OF_PERICENTER":200.7231,"MEAN_ANOMALY":159.3508,"EPHEMERIS_TYPE":0,"CLASSIFICATION_TYPE":"U","NORAD_CAT_ID":61779,"ELEMENT_SET_NO":999,"REV_AT_EPOCH":12592,"BSTAR":0.00042378837,"MEAN_MOTION_DOT":0.0001466,"MEAN_MOTION_DDOT":0},{"OBJECT_NAME":"ASRTU-1 (AO-123)","OBJECT_ID":"2024-199AY","EPOCH":"2026-04-05T06:57:35.047008","MEAN_MOTION":15.34616342,"ECCENTRICITY":0.00133806,"INCLINATION":97.3103,"RA_OF_ASC_NODE":324.6312,"ARG_OF_PERICENTER":203.6809,"MEAN_ANOMALY":156.382,"EPHEMERIS_TYPE":0,"CLASSIFICATION_TYPE":"U","NORAD_CAT_ID":61781,"ELEMENT_SET_NO":999,"REV_AT_EPOCH":12274,"BSTAR":0.00032351415,"MEAN_MOTION_DOT":0.00010806,"MEAN_MOTION_DDOT":0},{"OBJECT_NAME":"TUSUR GO (RS78S)","OBJECT_ID":"2024-199AZ","EPOCH":"2026-04-05T04:17:02.826816","MEAN_MOTION":15.82183505,"ECCENTRICITY":0.00068693,"INCLINATION":97.2924,"RA_OF_ASC_NODE":334.366,"ARG_OF_PERICENTER":157.0179,"MEAN_ANOMALY":203.1399,"EPHEMERIS_TYPE":0,"CLASSIFICATION_TYPE":"U","NORAD_CAT_ID":61782,"ELEMENT_SET_NO":999,"REV_AT_EPOCH":12339,"BSTAR":0.0015507581,"MEAN_MOTION_DOT":0.00328662,"MEAN_MOTION_DDOT":0},{"OBJECT_NAME":"SAMSAT-IONOSPHERE (RS75S)","OBJECT_ID":"2024-199BB","EPOCH":"2026-04-05T06:11:27.080448","MEAN_MOTION":15.5189377,"ECCENTRICITY":0.00100258,"INCLINATION":97.3059,"RA_OF_ASC_NODE":329.7153,"ARG_OF_PERICENTER":178.4496,"MEAN_ANOMALY":181.6789,"EPHEMERIS_TYPE":0,"CLASSIFICATION_TYPE":"U","NORAD_CAT_ID":61784,"ELEMENT_SET_NO":999,"REV_AT_EPOCH":12623,"BSTAR":0.00081743226,"MEAN_MOTION_DOT":0.0004922,"MEAN_MOTION_DDOT":0},{"OBJECT_NAME":"RTU MIREA 1 (RS51S)","OBJECT_ID":"2024-199BC","EPOCH":"2026-04-05T06:49:48.983808","MEAN_MOTION":15.54170756,"ECCENTRICITY":0.00100703,"INCLINATION":97.3055,"RA_OF_ASC_NODE":330.2712,"ARG_OF_PERICENTER":176.1056,"MEAN_ANOMALY":184.0278,"EPHEMERIS_TYPE":0,"CLASSIFICATION_TYPE":"U","NORAD_CAT_ID":61785,"ELEMENT_SET_NO":999,"REV_AT_EPOCH":12312,"BSTAR":0.00086857247,"MEAN_MOTION_DOT":0.00056832,"MEAN_MOTION_DDOT":0},{"OBJECT_NAME":"TEVEL2-4","OBJECT_ID":"2025-052D","EPOCH":"2026-04-04T23:02:45.442752","MEAN_MOTION":15.32120609,"ECCENTRICITY":0.00035665,"INCLINATION":97.3985,"RA_OF_ASC_NODE":351.3418,"ARG_OF_PERICENTER":46.7949,"MEAN_ANOMALY":313.359,"EPHEMERIS_TYPE":0,"CLASSIFICATION_TYPE":"U","NORAD_CAT_ID":63213,"ELEMENT_SET_NO":999,"REV_AT_EPOCH":5889,"BSTAR":0.00073221095,"MEAN_MOTION_DOT":0.00022675,"MEAN_MOTION_DDOT":0},{"OBJECT_NAME":"TEVEL2-5","OBJECT_ID":"2025-052E","EPOCH":"2026-04-05T04:03:51.938496","MEAN_MOTION":15.31996691,"ECCENTRICITY":0.00035506,"INCLINATION":97.3978,"RA_OF_ASC_NODE":351.5171,"ARG_OF_PERICENTER":46.4233,"MEAN_ANOMALY":313.7303,"EPHEMERIS_TYPE":0,"CLASSIFICATION_TYPE":"U","NORAD_CAT_ID":63214,"ELEMENT_SET_NO":999,"REV_AT_EPOCH":5892,"BSTAR":0.00076794726,"MEAN_MOTION_DOT":0.00023697,"MEAN_MOTION_DDOT":0},{"OBJECT_NAME":"TEVEL2-6","OBJECT_ID":"2025-052F","EPOCH":"2026-04-05T04:19:01.332192","MEAN_MOTION":15.31956649,"ECCENTRICITY":0.00035965,"INCLINATION":97.3982,"RA_OF_ASC_NODE":351.5133,"ARG_OF_PERICENTER":45.6011,"MEAN_ANOMALY":314.5525,"EPHEMERIS_TYPE":0,"CLASSIFICATION_TYPE":"U","NORAD_CAT_ID":63215,"ELEMENT_SET_NO":999,"REV_AT_EPOCH":5892,"BSTAR":0.00080171513,"MEAN_MOTION_DOT":0.00024715,"MEAN_MOTION_DDOT":0}]
